STARLINK-35882          
1 67088U 25298P   25362.83334491 -.01723585  00000+0 -18175-1 0  9993
2 67088  69.9994 204.2428 0003426 275.1494 182.6916 15.67237886  3566
STARLINK-35763          
1 67089U 25298Q   25362.83334491 -.01724186  00000+0 -18186-1 0  9994
2 67089  69.9995 204.2396 0003597 276.0116 183.8714 15.67230286  3568
STARLINK-36060          
1 67090U 25298R   25362.83334491 -.01721874  00000+0 -18159-1 0  9997
2 67090  69.9994 204.2369 0003504 275.4254 186.3452 15.67230976  3500
STARLINK-36097          
1 67091U 25298S   25362.83334491 -.01720387  00000+0 -18149-1 0  9995
2 67091  69.9995 204.2347 0003485 275.7536 188.0475 15.67220154  3569
STARLINK-35792          
1 67092U 25298T   25362.83334491 -.01723953  00000+0 -18186-1 0  9999
2 67092  69.9995 204.2325 0003628 274.9054 190.7817 15.67226284  3505
STARLINK-35784          
1 67093U 25298U   25362.83334491 -.01720817  00000+0 -18152-1 0  9999
2 67093  69.9993 204.2299 0003675 274.8256 192.8137 15.67220742  3566
STARLINK-36202          
1 67094U 25298V   25362.83334491 -.01721908  00000+0 -18173-1 0  9995
2 67094  69.9992 204.2276 0003570 275.9085 193.7750 15.67212100  3567
STARLINK-36227          
1 67095U 25298W   25362.83334491 -.01723700  00000+0 -18196-1 0  9993
2 67095  69.9994 204.2248 0003601 276.2938 195.3714 15.67209371  3503
STARLINK-36228          
1 67096U 25298X   25362.83334491 -.01719961  00000+0 -18150-1 0  9998
2 67096  69.9996 204.2232 0003643 275.2729 198.2570 15.67209616  3506
STARLINK-36222          
1 67097U 25298Y   25362.83334491 -.01713159  00000+0 -18073-1 0  9996
2 67097  69.9994 204.2204 0003483 273.6050 201.8796 15.67206036  3509
STARLINK-36205          
1 67098U 25298Z   25362.83334491 -.01719056  00000+0 -18149-1 0  9993
2 67098  69.9992 204.2181 0003573 276.3353 201.1944 15.67197778  3564
STARLINK-36193          
1 67099U 25298AA  25362.83334491 -.02507445  00000+0 -35599-1 0  9990
2 67099  69.9994 204.2846 0003670 272.5981 148.2392 15.59918469  3509
